{
    "links": {
        "self": "http://www.neowsapp.com/rest/v1/neo/3827176?api_key=iIulBulltgU6a56xZRHN4H3l9WmuAYTsLGpBGhQ2"
    },
    "id": "3827176",
    "neo_reference_id": "3827176",
    "name": "(2018 RE1)",
    "designation": "2018 RE1",
    "nasa_jpl_url": "http://ssd.jpl.nasa.gov/sbdb.cgi?sstr=3827176",
    "absolute_magnitude_h": 24.6,
    "estimated_diameter": {
        "kilometers": {
            "estimated_diameter_min": 0.0319561887,
            "estimated_diameter_max": 0.0714562102
        },
        "meters": {
            "estimated_diameter_min": 31.9561886721,
            "estimated_diameter_max": 71.4562101727
        },
        "miles": {
            "estimated_diameter_min": 0.0198566489,
            "estimated_diameter_max": 0.0444008168
        },
        "feet": {
            "estimated_diameter_min": 104.8431420431,
            "estimated_diameter_max": 234.436392583
        }
    },
    "is_potentially_hazardous_asteroid": false,
    "close_approach_data": [
        {
            "close_approach_date": "1956-12-31",
            "close_approach_date_full": "1956-Dec-31 23:06",
            "epoch_date_close_approach": -410230440000,
            "relative_velocity": {
                "kilometers_per_second": "24.762055085",
                "kilometers_per_hour": "89143.3983058848",
                "miles_per_hour": "55390.2410195649"
            },
            "miss_distance": {
                "astronomical": "0.4972253593",
                "lunar": "193.4206647677",
                "kilometers": "74383854.661264691",
                "miles": "46219984.0373710958"
            },
            "orbiting_body": "Earth"
        },
        {
            "close_approach_date": "2018-09-10",
            "close_approach_date_full": "2018-Sep-10 04:19",
            "epoch_date_close_approach": 1536553140000,
            "relative_velocity": {
                "kilometers_per_second": "25.9724384307",
                "kilometers_per_hour": "93500.7783504019",
                "miles_per_hour": "58097.7475255595"
            },
            "miss_distance": {
                "astronomical": "0.0284249828",
                "lunar": "11.0573183092",
                "kilometers": "4252316.881666636",
                "miles": "2642267.1867101368"
            },
            "orbiting_body": "Earth"
        }
    ],
    "orbital_data": {
        "orbit_id": "3",
        "orbit_determination_date": "2018-10-03 06:27:32",
        "first_observation_date": "2018-09-06",
        "last_observation_date": "2018-09-09",
        "data_arc_in_days": 3,
        "observations_used": 33,
        "orbit_uncertainty": "8",
        "minimum_orbit_intersection": ".0276285",
        "jupiter_tisserand_invariant": "2.743",
        "epoch_osculation": "2458368.5",
        "eccentricity": ".8098687734976945",
        "semi_major_axis": "2.693339979391099",
        "inclination": "16.04066130172979",
        "ascending_node_longitude": "342.2939121919853",
        "orbital_period": "1614.48938312913",
        "perihelion_distance": ".5120880336693239",
        "perihelion_argument": "101.590640859431",
        "aphelion_distance": "4.874591925112874",
        "perihelion_time": "2458416.747628831795",
        "mean_anomaly": "349.2417091366794",
        "mean_motion": ".2229807168519525",
        "equinox": "J2000",
        "orbit_class": {
            "orbit_class_type": "APO",
            "orbit_class_description": "Near-Earth asteroid orbits which cross the Earth’s orbit similar to that of 1862 Apollo",
            "orbit_class_range": "a (semi-major axis) > 1.0 AU; q (perihelion) < 1.017 AU"
        }
    },
    "is_sentry_object": false
}